NORAD_CAT_ID,OBJECT_NAME,OBJECT_TYPE,EPOCH,MEAN_MOTION,ECCENTRICITY,INCLINATION,RA_OF_ASC_NODE,ARG_OF_PERICENTER,MEAN_ANOMALY,BSTAR,MEAN_MOTION_DOT,MEAN_MOTION_DDOT,TLE_LINE0,TLE_LINE1,TLE_LINE2,SEMIMAJOR_AXIS,PERIOD,APOGEE,PERIGEE,DECAYED
56455.0,STARLINK-5987,PAYLOAD,2023-06-08 10:52:43,15.69547765,0.0002636,69.9981,164.5443,282.8134,77.2767,-0.00040175,-0.00047498,0.0,0 STARLINK-5987,1 56455U 23064H   23159.45327975 -.00047498  00000-0 -40175-3 0  9996,2 56455  69.9981 164.5443 0002636 282.8134  77.2767 15.69547765  4882,6738.328,91.746,361.969,358.417,0.0
56455.0,STARLINK-5987,PAYLOAD,2023-06-08 10:52:46,15.69490652,0.0003337,69.9984,164.5437,258.6727,101.4094,-0.00043658,-0.0005146,0.0,0 STARLINK-5987,1 56455U 23064H   23159.45331594 -.00051460  00000-0 -43658-3 0  9991,2 56455  69.9984 164.5437 0003337 258.6727 101.4094 15.69490652  4881,6738.492,91.75,362.605,358.108,0.0
56455.0,STARLINK-5987,PAYLOAD,2023-06-08 23:07:42,15.68963187,0.0002814,69.997,163.1147,243.113,116.9778,-0.00096922,-0.00110746,0.0,0 STARLINK-5987,1 56455U 23064H   23159.96369185 -.00110746  00000-0 -96922-3 0  9999,2 56455  69.9970 163.1147 0002814 243.1130 116.9778 15.68963187  4961,6740.002,91.78,363.763,359.97,0.0
56455.0,STARLINK-5987,PAYLOAD,2023-06-09 14:00:01,15.66944189,0.0003583,69.9999,161.3736,270.1061,348.4562,-0.01,-0.00965554,0.0,0 STARLINK-5987,1 56455U 23064H   23160.58334491 -.00965554  00000-0 -10000-1 0  9997,2 56455  69.9999 161.3736 0003583 270.1061 348.4562 15.66944189  5067,6745.79,91.899,370.072,365.238,0.0
56455.0,STARLINK-5987,PAYLOAD,2023-06-09 22:00:00,15.66256909,0.0003732,70.0001,160.4411,265.8929,72.0067,-0.0094377,-0.00892988,0.0,0 STARLINK-5987,1 56455U 23064H   23160.91667824 -.00892988  00000-0 -94377-2 0  9993,2 56455  70.0001 160.4411 0003732 265.8929  72.0067 15.66256909  1303,6747.763,91.939,372.147,367.11,0.0
56455.0,STARLINK-5987,PAYLOAD,2023-06-10 06:00:02,15.65592034,0.0003695,70.0002,159.5094,272.0754,144.4496,-0.0097073,-0.0089411,0.0,0 STARLINK-5987,1 56455U 23064H   23161.25002315 -.00894110  00000-0 -97073-2 0  9994,2 56455  70.0002 159.5094 0003695 272.0754 144.4496 15.65592034  5163,6749.674,91.978,374.033,369.045,0.0
56455.0,STARLINK-5987,PAYLOAD,2023-06-10 14:00:01,15.64989117,0.0003424,70.0,158.5787,273.1015,221.1046,-0.010849,-0.00967832,0.0,0 STARLINK-5987,1 56455U 23064H   23161.58334491 -.00967832  00000-0 -10849-1 0  9990,2 56455  70.0000 158.5787 0003424 273.1015 221.1046 15.64989117  1308,6751.407,92.013,375.584,370.96,0.0
56455.0,STARLINK-5987,PAYLOAD,2023-06-10 22:00:00,15.64306311,0.0003405,70.0003,157.6492,264.3548,306.84,-0.010312,-0.00901457,0.0,0 STARLINK-5987,1 56455U 23064H   23161.91667824 -.00901457  00000-0 -10312-1 0  9992,2 56455  70.0003 157.6492 0003405 264.3548 306.8400 15.64306311  5270,6753.372,92.054,377.536,372.937,0.0
56455.0,STARLINK-5987,PAYLOAD,2023-06-11 14:00:01,15.63032825,0.0003543,69.9998,155.7923,272.7044,90.107,-0.011762,-0.00970713,0.0,0 STARLINK-5987,1 56455U 23064H   23162.58334491 -.00970713  00000-0 -11762-1 0  9998,2 56455  69.9998 155.7923 0003543 272.7044  90.1070 15.63032825  5377,6757.039,92.129,381.298,376.51,0.0
56455.0,STARLINK-5987,PAYLOAD,2023-06-11 22:00:00,15.62354547,0.0003391,69.9999,154.8651,267.8579,169.5933,-0.01126,-0.00910583,0.0,0 STARLINK-5987,1 56455U 23064H   23162.91667824 -.00910583  00000-0 -11260-1 0  9996,2 56455  69.9999 154.8651 0003391 267.8579 169.5933 15.62354547  5438,6758.995,92.169,383.152,378.568,0.0
56455.0,STARLINK-5987,PAYLOAD,2023-06-12 14:00:01,15.61066867,0.0003161,69.9995,153.0135,270.6505,313.7926,-0.012515,-0.00957752,0.0,0 STARLINK-5987,1 56455U 23064H   23163.58335648 -.00957752  00000-0 -12515-1 0  9999,2 56455  69.9995 153.0135 0003161 270.6505 313.7926 15.61066867  5538,6762.711,92.245,386.714,382.438,0.0
56455.0,STARLINK-5987,PAYLOAD,2023-06-12 22:00:00,15.60406324,0.0003396,69.9998,152.0893,263.9018,32.7633,-0.012342,-0.00924123,0.0,0 STARLINK-5987,1 56455U 23064H   23163.91667824 -.00924123  00000-0 -12342-1 0  9994,2 56455  69.9998 152.0893 0003396 263.9018  32.7633 15.60406324  1304,6764.62,92.284,388.782,384.187,0.0
56455.0,STARLINK-5987,PAYLOAD,2023-06-13 06:00:02,15.59710919,0.0003334,69.9995,151.1658,271.2109,97.0472,-0.011892,-0.00871777,0.0,0 STARLINK-5987,1 56455U 23064H   23164.25002315 -.00871777  00000-0 -11892-1 0  9995,2 56455  69.9995 151.1658 0003334 271.2109  97.0472 15.59710919  5636,6766.63,92.325,390.751,386.239,0.0
56455.0,STARLINK-5987,PAYLOAD,2023-06-13 14:00:01,15.5910159,0.0003261,69.999,150.2432,272.0661,166.8366,-0.013246,-0.00941673,0.0,0 STARLINK-5987,1 56455U 23064H   23164.58334491 -.00941673  00000-0 -13246-1 0  9992,2 56455  69.9990 150.2432 0003261 272.0661 166.8366 15.59101590  1308,6768.393,92.361,392.465,388.051,0.0
56455.0,STARLINK-5987,PAYLOAD,2023-06-13 22:00:00,15.58449579,0.0003195,69.9992,149.3215,265.5441,243.2962,-0.013294,-0.0092371,0.0,0 STARLINK-5987,1 56455U 23064H   23164.91667824 -.00923710  00000-0 -13294-1 0  9993,2 56455  69.9992 149.3215 0003195 265.5441 243.2962 15.58449579  5742,6770.281,92.4,394.309,389.983,0.0
56455.0,STARLINK-5987,PAYLOAD,2023-06-14 14:00:01,15.57145978,0.0003257,69.999,147.4805,271.0095,15.3772,-0.014351,-0.00946995,0.0,0 STARLINK-5987,1 56455U 23064H   23165.58334491 -.00946995  00000-0 -14351-1 0  9993,2 56455  69.9990 147.4805 0003257 271.0095  15.3772 15.57145978  1300,6774.059,92.477,398.13,393.717,0.0
56455.0,STARLINK-5987,PAYLOAD,2023-06-14 22:00:00,15.56492566,0.0003463,69.9992,146.5618,267.2981,86.6779,-0.014266,-0.00921272,0.0,0 STARLINK-5987,1 56455U 23064H   23165.91667824 -.00921272  00000-0 -14266-1 0  9995,2 56455  69.9992 146.5618 0003463 267.2981  86.6779 15.56492566  5897,6775.954,92.516,400.166,395.473,0.0
56455.0,STARLINK-5987,PAYLOAD,2023-06-15 14:00:01,15.55184721,0.0003333,69.9987,144.7263,272.859,213.9719,-0.015291,-0.00938839,0.0,0 STARLINK-5987,1 56455U 23064H   23166.58334491 -.00938839  00000-0 -15291-1 0  9996,2 56455  69.9987 144.7263 0003333 272.8590 213.9719 15.55184721  1302,6779.753,92.594,403.877,399.358,0.0
56455.0,STARLINK-5987,PAYLOAD,2023-06-15 20:00:01,15.54667411,0.0003488,69.999,144.039,268.2769,177.5675,-0.0144,-0.00873603,0.0,0 STARLINK-5987,1 56455U 23064H   23166.83334491 -.00873603  00000-0 -14400-1 0  9992,2 56455  69.9990 144.0390 0003488 268.2769 177.5675 15.54667411  1305,6781.257,92.624,405.487,400.756,0.0
56455.0,STARLINK-5987,PAYLOAD,2023-06-16 06:00:00,15.53845083,0.0003651,69.9993,142.8947,272.3568,344.2007,-0.014905,-0.00877111,0.0,0 STARLINK-5987,1 56455U 23064H   23167.25001157 -.00877111  00000-0 -14905-1 0  9997,2 56455  69.9993 142.8947 0003651 272.3568 344.2007 15.53845083  6104,6783.649,92.673,407.991,403.037,0.0
56455.0,STARLINK-5987,PAYLOAD,2023-06-16 14:00:01,15.53229233,0.0003662,69.9989,141.98,270.4015,49.8282,-0.016435,-0.00939329,0.0,0 STARLINK-5987,1 56455U 23064H   23167.58334491 -.00939329  00000-0 -16435-1 0  9993,2 56455  69.9989 141.9800 0003662 270.4015  49.8282 15.53229233  1308,6785.442,92.71,409.792,404.822,0.0
56455.0,STARLINK-5987,PAYLOAD,2023-06-16 22:00:00,15.52581511,0.0003648,69.9992,141.0665,266.8777,116.2482,-0.016606,-0.00928164,0.0,0 STARLINK-5987,1 56455U 23064H   23167.91667824 -.00928164  00000-0 -16606-1 0  9994,2 56455  69.9992 141.0665 0003648 266.8777 116.2482 15.52581511  6204,6787.329,92.749,411.67,406.718,0.0
56455.0,STARLINK-5987,PAYLOAD,2023-06-17 10:17:25,15.53180315,0.0003056,69.9992,139.6708,271.8881,88.1956,-0.0042394,-0.0025877,0.0,0 STARLINK-5987,1 56455U 23064H   23168.42876514 -.00258770  00000-0 -42394-2 0  9992,2 56455  69.9992 139.6708 0003056 271.8881  88.1956 15.53180315  5930,6785.584,92.713,409.523,405.376,0.0
56455.0,STARLINK-5987,PAYLOAD,2023-06-17 14:00:01,15.51249834,0.0003508,69.9992,139.2418,269.6816,236.9135,-0.0012715,-0.00074227,0.0,0 STARLINK-5987,1 56455U 23064H   23168.58334491 -.00074227  00000-0 -12715-2 0  9999,2 56455  69.9992 139.2418 0003508 269.6816 236.9135 15.51249834  6314,6791.213,92.828,415.46,410.695,0.0
56455.0,STARLINK-5987,PAYLOAD,2023-06-17 22:00:01,15.51218471,0.0003548,69.9996,138.3306,264.0326,303.5297,0.00047548,0.00027858,0.0,0 STARLINK-5987,1 56455U 23064H   23168.91668981  .00027858  00000-0  47548-3 0  9999,2 56455  69.9996 138.3306 0003548 264.0326 303.5297 15.51218471  6361,6791.304,92.83,415.579,410.76,0.0
56455.0,STARLINK-5987,PAYLOAD,2023-06-18 14:00:01,15.51250875,0.0003547,69.9993,136.5081,266.5153,62.887,-0.001314,-0.00076682,0.0,0 STARLINK-5987,1 56455U 23064H   23169.58335648 -.00076682  00000-0 -13140-2 0  9995,2 56455  69.9993 136.5081 0003547 266.5153  62.8870 15.51250875  6469,6791.21,92.828,415.484,410.666,0.0
56455.0,STARLINK-5987,PAYLOAD,2023-06-18 22:00:00,15.51229673,0.0003615,69.9999,135.5969,261.7426,128.5024,9.724e-05,5.552e-05,0.0,0 STARLINK-5987,1 56455U 23064H   23169.91667824  .00005552  00000-0  97240-4 0  9997,2 56455  69.9999 135.5969 0003615 261.7426 128.5024 15.51229673  6514,6791.272,92.83,415.592,410.682,0.0
56455.0,STARLINK-5987,PAYLOAD,2023-06-19 06:00:00,15.51353386,0.0003444,70.0001,134.6857,270.9448,180.2031,-0.0078209,-0.0043715,0.0,0 STARLINK-5987,1 56455U 23064H   23170.25001157 -.00437150  00000-0 -78209-2 0  9994,2 56455  70.0001 134.6857 0003444 270.9448 180.2031 15.51353386  6571,6790.911,92.822,415.114,410.437,0.0
56455.0,STARLINK-5987,PAYLOAD,2023-06-19 13:20:48,15.51375705,0.0004124,69.9989,133.8506,250.1838,109.8904,-0.00062491,-0.00036904,0.0,0 STARLINK-5987,1 56455U 23064H   23170.55611226 -.00036904  00000-0 -62491-3 0  9990,2 56455  69.9989 133.8506 0004124 250.1838 109.8904 15.51375705  6265,6790.846,92.821,415.511,409.91,0.0
56455.0,STARLINK-5987,PAYLOAD,2023-06-19 14:00:01,15.51071293,0.0003224,69.9997,133.7743,268.2855,243.7625,-0.017748,-0.00951576,0.0,0 STARLINK-5987,1 56455U 23064H   23170.58334491 -.00951576  00000-0 -17748-1 0  9993,2 56455  69.9997 133.7743 0003224 268.2855 243.7625 15.51071293  6628,6791.734,92.839,415.789,411.409,0.0
